NUVIEW BRAVO            
1 62457U 24252D   26165.45836999 -.00000207  00000+0  00000+0 0  9990
2 62457   0.0695 149.9592 0001799 332.1915 222.5052  1.00270360  3768
THURAYA-4               
1 62483U 25001A   26165.48359012  .00000147  00000+0  00000+0 0  9993
2 62483   0.0229  57.7241 0000265 210.8207 212.6399  1.00271797  4153
SHIJIAN-25 (SJ-25)      
1 62485U 25002A   26164.77108918 -.00000344  00000+0  00000+0 0  9994
2 62485   5.1048  61.1838 0052236 173.2448  72.5687  1.00269176  5326
TJS-14                  
1 62804U 25017A   26165.54976541  .00000123  00000+0  00000+0 0  9990
2 62804   0.7888 295.4304 0000976 290.2900 253.4173  1.00273099  5241
SPAINSAT NG I           
1 62852U 25021A   26165.48047008  .00000159  00000+0  00000+0 0  9997
2 62852   0.0160 338.7746 0000242 285.1401 200.8359  1.00269636  3967
QZS-6 (MICHIBIKI-6)     
1 62876U 25023A   26165.52616225 -.00000226  00000+0  00000+0 0  9999
2 62876   0.0472  67.2156 0001700  23.1114  92.4408  1.00271327  4926
ZHONGXING-10R           
1 63075U 25036A   26165.49672413 -.00000345  00000+0  00000+0 0  9994
2 63075   0.0316 247.0986 0003460 253.5033  51.5409  1.00273041  4931
TJS-15                  
1 63157U 25045A   26164.73833023 -.00000254  00000+0  00000+0 0  9996
2 63157   0.2796  85.4960 0004685 296.5136 240.2268  1.00272543  4726
TIANLIAN 2-04           
1 63361U 25062A   26165.41931258 -.00000124  00000+0  00000+0 0  9993
2 63361   4.3821 274.4821 0031742  10.3628 208.8780  1.00271692  4571
TJS-16                  
1 63397U 25064A   26164.65112330 -.00000095  00000+0  00000+0 0  9998
2 63397   1.0888  81.4744 0003372 288.9856 286.5162  1.00271351  4356
TJS-17                  
1 63524U 25073A   26164.65190330 -.00000059  00000+0  00000+0 0  9996
2 63524   1.0546  82.7223 0002099 295.8246 282.6321  1.00271862  4250
TIANLIAN 2-05           
1 63662U 25084A   26165.55011207  .00000135  00000+0  00000+0 0  9990
2 63662   4.4581 279.8665 0003089 146.2315  55.1515  1.00269199  4353
TJS-19                  
1 63924U 25097A   26164.74058086 -.00000266  00000+0  00000+0 0  9997
2 63924   3.2925 317.3828 0002297 240.9676 111.5152  1.00266676  4108
CHINASAT 3B             
1 64062U 25106A   26165.32886530 -.00000037  00000+0  00000+0 0  9996
2 64062   0.0285 100.5779 0002802  21.7353  66.0309  1.00271243  4038
SXM-10                  
1 64290U 25122A   26165.15002934 -.00000008  00000+0  00000+0 0  9994
2 64290   0.0190  22.3904 0001658 338.0243 199.8816  1.00272038  3655
COSMOS 2589             
1 64467U 25131A   26164.72494733 -.00000279  00000+0  00000+0 0  9994
2 64467   0.0440  85.5258 0000790 111.0994  64.3525  1.00262709  3523
CHINASAT 9C             
1 64470U 25132A   26165.56381962  .00000000  00000+0  00000+0 0  9992
2 64470   0.0180 353.2481 0002518  89.4060 115.3872  1.00268362  4123
MTG-S1                  
1 64723U 25143A   26165.33153079 -.00000023  00000+0  00000+0 0  9992
2 64723   0.6057 338.3103 0000982  11.4197  28.7810  1.00271745  3393
DROR 1                  
1 64784U 25148A   26165.33144411 -.00000026  00000+0  00000+0 0  9997
2 64784   0.0278  54.4280 0002540 333.7657 349.7548  1.00271708  3263
SHIYAN-29               
1 65486U 25196A   26160.07536391 -.00000259  00000+0  00000+0 0  9996
2 65486  28.8121  18.6391 0010972 171.7452 188.2752  1.00256520  2799
NUSANTARA LIMA (NUSANT*)
1 65588U 25205A   26165.50671087 -.00000351  00000+0  00000+0 0  9998
2 65588   0.0174  92.3363 0000282 216.9196 248.8253  1.00278321  2691
TJS-20                  
1 66142U 25238A   26165.48714345  .00000035  00000+0  00000+0 0  9991
2 66142   5.4758 299.5661 0004502 162.0999  38.9141  1.00273665  2306
CMS-03 (GSAT-7R)        
1 66311U 25249B   26165.48948346  .00000000  00000+0  00000+0 0  9993
2 66311   0.0180 355.1023 0001481  85.5512  72.3365  1.00270231  2326
VIASAT-3 F2             
1 66454U 25261A   26164.60372797 -.00000222  00000+0  00000+0 0  9996
2 66454   0.0436 156.3674 0000190 171.0236  72.8878  1.00268992  2753
SHIJIAN-28 (SJ-28)      
1 66549U 25277A   26165.28407399 -.00000347  00000+0  00000+0 0  9998
2 66549   4.5461 272.1823 0000823 348.1398 221.2914  1.00264017  2123
TJS-22                  
1 66990U 25290A   26164.88497883  .00000004  00000+0  00000+0 0  9994
2 66990   1.5364 286.5231 0001911 330.6938  30.0362  1.00273079  1994
TJS-23                  
1 67226U 25306A   26164.61166610  .00000031  00000+0  00000+0 0  9997
2 67226   5.5959 297.5066 0005367 169.3780 190.7656  1.00274515  1851
FENGYUN 4C              
1 67246U 25312A   26165.52197634 -.00000316  00000+0  00000+0 0  9994
2 67246   0.0503 147.2658 0000560  64.2753  12.1829  1.00270609  1757
SHIJIAN-29A (SJ-29A)    
1 67302U 25315A   26165.19955606 -.00000061  00000+0  00000+0 0  9991
2 67302   3.3900  95.1825 0003091  25.6394 286.7270  1.00269522  1580
SHIJIAN-29B (SJ-29B)    
1 67403U 25315C   26164.99026700 -.00000060  00000+0  00000+0 0  9993
2 67403   3.3882  95.1799 0003670  32.4891 204.3731  1.00269369  1657
ELEKTRO-L 5             
1 67756U 26028A   26165.06004312 -.00000088  00000+0  00000+0 0  9990
2 67756   0.2571 310.4463 0001751 180.7679 228.8062  1.00271153  1224
JAM-E JAM 1             
1 67757U 26028B   26165.19638000  .00000165  00000+0  00000+0 0  9997
2 67757   0.2665 301.4213 0001204 299.6871 126.0115  1.00273958  1097
